     2.10           G: GLONASS NAV DATA                     RINEX VERSION / TYPE
teqc  2015Jun23                         20210502 02:25:49UTCPGM / RUN BY / DATE
Linux 2.4.21-27.ELsmp|Opteron|gcc -static|Linux x86_64|=+   COMMENT
  2021     4     8    7.450580596924D-09                    CORR TO SYSTEM TIME
                                                            END OF HEADER
24 21  4  9 11 15  0.0 3.818329423666D-05 1.818989403546D-12 3.981000000000D+04
   -1.993477539062D+03-3.095902442932D+00-9.313225746155D-10 0.000000000000D+00
    1.063754150391D+04-6.403293609619D-01-0.000000000000D+00 2.000000000000D+00
    2.311390625000D+04 2.716922760010D-02-1.862645149231D-09 0.000000000000D+00
 3 21  4  9 11 15  0.0 3.390759229660D-05 0.000000000000D+00 4.038000000000D+04
    4.255908203125D+03-1.965888977051D+00 0.000000000000D+00 0.000000000000D+00
    1.141568212891D+04 2.364584922791D+00-9.313225746155D-10 5.000000000000D+00
   -2.237015820312D+04 8.261566162109D-01 1.862645149231D-09 0.000000000000D+00
14 21  4  9 11 45  0.0 6.294995546341D-05 0.000000000000D+00 4.140000000000D+04
    1.179646386719D+04 1.348009109497D-01 0.000000000000D+00 0.000000000000D+00
    2.260921044922D+04-4.699611663818D-02-2.793967723846D-09-7.000000000000D+00
    1.547226562500D+02-3.561125755310D+00 0.000000000000D+00 0.000000000000D+00
 2 21  4  9 11 45  0.0 4.741027951241D-04 9.094947017729D-13 4.140000000000D+04
   -1.094266162109D+04-3.412990570068D-01-2.793967723846D-09 0.000000000000D+00
    2.216359033203D+04 8.272762298584D-01-9.313225746155D-10-4.000000000000D+00
   -6.376425781250D+03 3.430967330933D+00 9.313225746155D-10 0.000000000000D+00
 1 21  4  9 11 45  0.0 7.761549204588D-05 0.000000000000D+00 4.140000000000D+04
   -1.638407519531D+04 1.103992462158D+00-3.725290298462D-09 0.000000000000D+00
    1.364329248047D+04-1.569461822510D+00 0.000000000000D+00 1.000000000000D+00
    1.399811083984D+04 2.824408531189D+00-9.313225746155D-10 0.000000000000D+00
 3 21  4  9 11 45  0.0 3.390852361917D-05 0.000000000000D+00 4.140000000000D+04
    1.184847167969D+03-1.429500579834D+00-0.000000000000D+00 0.000000000000D+00
    1.570537792969D+04 2.354110717773D+00-9.313225746155D-10 5.000000000000D+00
   -2.003447119141D+04 1.751944541931D+00 1.862645149231D-09 0.000000000000D+00
13 21  4  9 11 45  0.0-5.318690091372D-05-0.000000000000D+00 4.140000000000D+04
    1.256730957031D+03-9.678134918213D-01-9.313225746155D-10 0.000000000000D+00
    1.932279882812D+04-2.058362007141D+00-1.862645149231D-09-2.000000000000D+00
   -1.662618945312D+04-2.468076705933D+00 1.862645149231D-09 0.000000000000D+00
24 21  4  9 11 45  0.0 3.818608820438D-05 1.818989403546D-12 4.215000000000D+04
   -7.564112304688D+03-3.041819572449D+00-1.862645149231D-09 0.000000000000D+00
    9.906336425781D+03-1.704072952271D-01 0.000000000000D+00 2.000000000000D+00
    2.227025146484D+04-9.585180282593D-01-1.862645149231D-09 0.000000000000D+00
15 21  4  9 11 45  0.0 1.044739037752D-04-0.000000000000D+00 4.302000000000D+04
    1.516943505859D+04 1.112865447998D+00 9.313225746155D-10 0.000000000000D+00
    1.254820800781D+04 1.923869132996D+00-1.862645149231D-09 0.000000000000D+00
    1.623652539062D+04-2.528468132019D+00-1.862645149231D-09 0.000000000000D+00
14 21  4  9 12 15  0.0 6.295088678598D-05 0.000000000000D+00 4.320000000000D+04
    1.160966015625D+04-3.731622695923D-01-0.000000000000D+00 0.000000000000D+00
    2.184781445312D+04-7.724409103394D-01-1.862645149231D-09-7.000000000000D+00
   -6.178392578125D+03-3.429927825928D+00 9.313225746155D-10 0.000000000000D+00
 2 21  4  9 12 15  0.0 4.741065204144D-04 1.818989403546D-12 4.320000000000D+04
   -1.108268945312D+04 1.538705825806D-01-3.725290298462D-09 0.000000000000D+00
    2.300966650391D+04 8.657360076904D-02-0.000000000000D+00-4.000000000000D+00
   -3.437011718750D+01 3.570097923279D+00 0.000000000000D+00 0.000000000000D+00
 1 21  4  9 12 15  0.0 7.761642336845D-05 0.000000000000D+00 4.320000000000D+04
   -1.434917968750D+04 1.114742279053D+00-3.725290298462D-09 0.000000000000D+00
    1.017008105469D+04-2.270569801331D+00 9.313225746155D-10 1.000000000000D+00
    1.847508105469D+04 2.117746353149D+00-9.313225746155D-10 0.000000000000D+00
 3 21  4  9 12 15  0.0 3.390945494175D-05 0.000000000000D+00 4.320000000000D+04
   -8.626430664062D+02-8.471364974976D-01-1.862645149231D-09 0.000000000000D+00
    1.971556689453D+04 2.053684234619D+00-9.313225746155D-10 5.000000000000D+00
   -1.614557275391D+04 2.540747642517D+00 1.862645149231D-09 0.000000000000D+00
13 21  4  9 12 15  0.0-5.318690091372D-05-0.000000000000D+00 4.320000000000D+04
   -1.014935546875D+03-1.554580688477D+00-9.313225746155D-10 0.000000000000D+00
    1.534770507812D+04-2.310312271118D+00-9.313225746155D-10-2.000000000000D+00
   -2.036984912109D+04-1.664642333984D+00 1.862645149231D-09 0.000000000000D+00
15 21  4  9 12 15  0.0 1.044739037752D-04-0.000000000000D+00 4.320000000000D+04
    1.709034765625D+04 9.776163101196D-01 9.313225746155D-10 0.000000000000D+00
    1.534259912109D+04 1.171217918396D+00-1.862645149231D-09 0.000000000000D+00
    1.111702539062D+04-3.123007774353D+00-9.313225746155D-10 0.000000000000D+00
24 21  4  9 12 15  0.0 3.818888217211D-05 1.818989403546D-12 4.335000000000D+04
   -1.276168359375D+04-2.685379981995D+00-2.793967723846D-09 0.000000000000D+00
    9.997495605469D+03 2.555150985718D-01 9.313225746155D-10 2.000000000000D+00
    1.970759228516D+04-1.870471954346D+00-9.313225746155D-10 0.000000000000D+00
14 21  4  9 12 45  0.0 6.295181810856D-05 0.000000000000D+00 4.500000000000D+04
    1.036696435547D+04-1.023692131042D+00-9.313225746155D-10 0.000000000000D+00
    1.994898242188D+04-1.298134803772D+00-1.862645149231D-09-7.000000000000D+00
   -1.203331103516D+04-3.033247947693D+00 9.313225746155D-10 0.000000000000D+00
 2 21  4  9 12 45  0.0 4.741093143821D-04 1.818989403546D-12 4.500000000000D+04
   -1.052121972656D+04 4.296016693115D-01-3.725290298462D-09 0.000000000000D+00
    2.241145996094D+04-7.598037719727D-01 0.000000000000D+00-4.000000000000D+00
    6.310447753906D+03 3.434139251709D+00-0.000000000000D+00 0.000000000000D+00
 3 21  4  9 12 45  0.0 3.391038626432D-05 0.000000000000D+00 4.500000000000D+04
   -1.903214843750D+03-3.282022476196D-01-2.793967723846D-09 0.000000000000D+00
    2.293649121094D+04 1.484469413757D+00-0.000000000000D+00 5.000000000000D+00
   -1.100672900391D+04 3.131832122803D+00 9.313225746155D-10 0.000000000000D+00
13 21  4  9 12 45  0.0-5.318783223629D-05-0.000000000000D+00 4.500000000000D+04
   -4.300477050781D+03-2.076106071472D+00-1.862645149231D-09 0.000000000000D+00
    1.117832666016D+04-2.276047706604D+00-0.000000000000D+00-2.000000000000D+00
   -2.254180371094D+04-7.330408096313D-01 1.862645149231D-09 0.000000000000D+00
15 21  4  9 12 45  0.0 1.044739037752D-04-0.000000000000D+00 4.500000000000D+04
    1.853287841797D+04 5.839395523071D-01 0.000000000000D+00 0.000000000000D+00
    1.676384082031D+04 4.171829223633D-01-2.793967723846D-09 0.000000000000D+00
    5.138712402344D+03-3.476481437683D+00-0.000000000000D+00 0.000000000000D+00
24 21  4  9 12 45  0.0 3.819167613983D-05 1.818989403546D-12 4.500000000000D+04
   -1.707695361328D+04-2.072699546814D+00-3.725290298462D-09 0.000000000000D+00
    1.073951269531D+04 5.378580093384D-01 1.862645149231D-09 2.000000000000D+00
    1.562322509766D+04-2.638338088989D+00-9.313225746155D-10 0.000000000000D+00
23 21  4  9 12 45  0.0 3.774799406528D-04 1.818989403546D-12 4.569000000000D+04
   -2.449432275391D+04-3.859405517578D-01-3.725290298462D-09 0.000000000000D+00
    6.363876464844D+03 3.294887542725D-01 2.793967723846D-09 3.000000000000D+00
    3.222137207031D+03-3.574676513672D+00-0.000000000000D+00 0.000000000000D+00
 4 21  4  9 12 45  0.0 8.164159953594D-05 9.094947017729D-13 4.632000000000D+04
    7.466617675781D+03-8.832311630249D-01-0.000000000000D+00 0.000000000000D+00
    1.044059326172D+04 2.891851425171D+00-9.313225746155D-10 6.000000000000D+00
   -2.201244287109D+04 1.069920539856D+00 1.862645149231D-09 0.000000000000D+00
23 21  4  9 13 15  0.0 3.774845972657D-04 1.818989403546D-12 4.680000000000D+04
   -2.438061669922D+04 5.011157989502D-01-3.725290298462D-09 0.000000000000D+00
    6.779136230469D+03 9.065437316895D-02 2.793967723846D-09 3.000000000000D+00
   -3.253702636719D+03-3.573995590210D+00 0.000000000000D+00 0.000000000000D+00
 2 21  4  9 13 15  0.0 4.741139709949D-04 1.818989403546D-12 4.680000000000D+04
   -9.686395019531D+03 4.564085006714D-01-3.725290298462D-09 0.000000000000D+00
    2.027846728516D+04-1.599316596985D+00 9.313225746155D-10-4.000000000000D+00
    1.216971826172D+04 3.034167289734D+00-9.313225746155D-10 0.000000000000D+00
 3 21  4  9 13 15  0.0 3.391224890947D-05 9.094947017729D-13 4.680000000000D+04
   -2.139331542969D+03 3.318691253662D-02-3.725290298462D-09 0.000000000000D+00
    2.493620996094D+04 7.106246948242D-01 0.000000000000D+00 5.000000000000D+00
   -5.017038574219D+03 3.480122566223D+00 9.313225746155D-10 0.000000000000D+00
 4 21  4  9 13 15  0.0 8.164439350367D-05 1.818989403546D-12 4.680000000000D+04
    6.331306152344D+03-3.837814331055D-01-9.313225746155D-10 0.000000000000D+00
    1.544539306641D+04 2.618923187256D+00-9.313225746155D-10 6.000000000000D+00
   -1.925816308594D+04 1.970401763916D+00 1.862645149231D-09 0.000000000000D+00
14 21  4  9 13 15  0.0 6.295274943113D-05 0.000000000000D+00 4.680000000000D+04
    7.898432128906D+03-1.717049598694D+00-9.313225746155D-10 0.000000000000D+00
    1.732915820312D+04-1.567592620850D+00-9.313225746155D-10-7.000000000000D+00
   -1.695686230469D+04-2.401812553406D+00 1.862645149231D-09 0.000000000000D+00
15 21  4  9 13 15  0.0 1.044729724526D-04-0.000000000000D+00 4.680000000000D+04
    1.905934082031D+04-3.038024902344D-02-0.000000000000D+00 0.000000000000D+00
    1.690938330078D+04-2.293787002563D-01-2.793967723846D-09 0.000000000000D+00
   -1.236730468750D+03-3.561358451843D+00 0.000000000000D+00 0.000000000000D+00
